KUIPER-00044            
1 64505U 25134F   25266.68135733  .00007320  00000+0  98624-3 0  9995
2 64505  51.8973 265.1058 0014419  79.8827 280.3761 14.79962174 15151
KUIPER-00046            
1 64506U 25134G   25266.67511601  .00008113  00000+0  10916-2 0  9995
2 64506  51.8978 261.4982 0012788  91.6369 268.6058 14.79903226 15209
KUIPER-00047            
1 64507U 25134H   25266.33694268  .00090036  00000+0  25130-2 0  9999
2 64507  51.8617 248.4090 0011011  96.3795 263.8446 15.35913013 15350
KUIPER-00048            
1 64508U 25134J   25266.34022586  .00066016  00000+0  17174-2 0  9999
2 64508  51.8763 247.0900 0006446  77.1960 282.9748 15.38276006 15371
KUIPER-00049            
1 64509U 25134K   25267.00002315 -.00168991  00000+0 -12316-1 0  9991
2 64509  51.8851 247.6908 0007304  65.2004 330.7155 15.04115144  2834
KUIPER-00050            
1 64510U 25134L   25267.00002315 -.00175935  00000+0 -13356-1 0  9994
2 64510  51.8918 248.7947 0007071 103.7529 109.8630 15.02626552  4503
KUIPER-00051            
1 64511U 25134M   25267.00002315 -.01138119  00000+0 -67628-1 0  9990
2 64511  51.8878 246.6801 0005973  68.2977  31.1854 15.13721752  4488
KUIPER-00052            
1 64512U 25134N   25266.33576878  .00184045  00000+0  23659-2 0  9999
2 64512  51.8731 239.6743 0007904  92.7557 267.4343 15.57914829 15471
